{
    "links": {
        "self": "http://www.neowsapp.com/rest/v1/neo/54017122?api_key=iIulBulltgU6a56xZRHN4H3l9WmuAYTsLGpBGhQ2"
    },
    "id": "54017122",
    "neo_reference_id": "54017122",
    "name": "(2020 KR1)",
    "designation": "2020 KR1",
    "nasa_jpl_url": "http://ssd.jpl.nasa.gov/sbdb.cgi?sstr=54017122",
    "absolute_magnitude_h": 24.675,
    "estimated_diameter": {
        "kilometers": {
            "estimated_diameter_min": 0.0308713042,
            "estimated_diameter_max": 0.0690303346
        },
        "meters": {
            "estimated_diameter_min": 30.8713041559,
            "estimated_diameter_max": 69.0303346466
        },
        "miles": {
            "estimated_diameter_min": 0.0191825331,
            "estimated_diameter_max": 0.0428934481
        },
        "feet": {
            "estimated_diameter_min": 101.2838095268,
            "estimated_diameter_max": 226.477483122
        }
    },
    "is_potentially_hazardous_asteroid": false,
    "close_approach_data": [
        {
            "close_approach_date": "2009-09-06",
            "close_approach_date_full": "2009-Sep-06 03:31",
            "epoch_date_close_approach": 1252207860000,
            "relative_velocity": {
                "kilometers_per_second": "19.5842021232",
                "kilometers_per_hour": "70503.1276433936",
                "miles_per_hour": "43807.9017293076"
            },
            "miss_distance": {
                "astronomical": "0.4747211674",
                "lunar": "184.6665341186",
                "kilometers": "71017275.486953438",
                "miles": "44128088.7409279244"
            },
            "orbiting_body": "Earth"
        },
        {
            "close_approach_date": "2020-06-22",
            "close_approach_date_full": "2020-Jun-22 03:34",
            "epoch_date_close_approach": 1592796840000,
            "relative_velocity": {
                "kilometers_per_second": "6.8227934012",
                "kilometers_per_hour": "24562.0562441556",
                "miles_per_hour": "15261.9065590421"
            },
            "miss_distance": {
                "astronomical": "0.0296930077",
                "lunar": "11.5505799953",
                "kilometers": "4442010.705813599",
                "miles": "2760137.4633177062"
            },
            "orbiting_body": "Earth"
        },
        {
            "close_approach_date": "2033-08-14",
            "close_approach_date_full": "2033-Aug-14 16:08",
            "epoch_date_close_approach": 2007648480000,
            "relative_velocity": {
                "kilometers_per_second": "10.03387099",
                "kilometers_per_hour": "36121.9355641094",
                "miles_per_hour": "22444.766017599"
            },
            "miss_distance": {
                "astronomical": "0.1597163353",
                "lunar": "62.1296544317",
                "kilometers": "23893223.565085811",
                "miles": "14846560.6791777518"
            },
            "orbiting_body": "Earth"
        },
        {
            "close_approach_date": "2046-09-05",
            "close_approach_date_full": "2046-Sep-05 17:57",
            "epoch_date_close_approach": 2419783020000,
            "relative_velocity": {
                "kilometers_per_second": "19.0036244544",
                "kilometers_per_hour": "68413.0480359941",
                "miles_per_hour": "42509.2075421431"
            },
            "miss_distance": {
                "astronomical": "0.4554243742",
                "lunar": "177.1600815638",
                "kilometers": "68130516.326402954",
                "miles": "42334339.7758066052"
            },
            "orbiting_body": "Earth"
        },
        {
            "close_approach_date": "2057-05-27",
            "close_approach_date_full": "2057-May-27 15:07",
            "epoch_date_close_approach": 2758201620000,
            "relative_velocity": {
                "kilometers_per_second": "12.3510274487",
                "kilometers_per_hour": "44463.6988154593",
                "miles_per_hour": "27628.0133000836"
            },
            "miss_distance": {
                "astronomical": "0.2201305803",
                "lunar": "85.6307957367",
                "kilometers": "32931065.934743961",
                "miles": "20462415.5170342218"
            },
            "orbiting_body": "Earth"
        }
    ],
    "orbital_data": {
        "orbit_id": "18",
        "orbit_determination_date": "2020-07-09 06:11:41",
        "first_observation_date": "2020-05-17",
        "last_observation_date": "2020-06-23",
        "data_arc_in_days": 37,
        "observations_used": 107,
        "orbit_uncertainty": "6",
        "minimum_orbit_intersection": ".0110344",
        "jupiter_tisserand_invariant": "4.135",
        "epoch_osculation": "2459000.5",
        "eccentricity": ".3908798310426729",
        "semi_major_axis": "1.681995180354441",
        "inclination": "5.829543768576482",
        "ascending_node_longitude": "98.08034849653571",
        "orbital_period": "796.7747218827963",
        "perihelion_distance": "1.024537188442907",
        "perihelion_argument": "189.2980127038631",
        "aphelion_distance": "2.339453172265975",
        "perihelion_time": "2459036.439032288017",
        "mean_anomaly": "343.7619702679406",
        "mean_motion": ".451821562749019",
        "equinox": "J2000",
        "orbit_class": {
            "orbit_class_type": "AMO",
            "orbit_class_description": "Near-Earth asteroid orbits similar to that of 1221 Amor",
            "orbit_class_range": "1.017 AU < q (perihelion) < 1.3 AU"
        }
    },
    "is_sentry_object": false
}